SL-16 R/B               
1 23405U 94077B   26188.18920702 -.00000241  00000+0 -98467-4 0  9991
2 23405  70.9832 101.0830 0004006 309.8696  50.2074 14.15576957633144
ARIANE 40+ R/B          
1 23561U 95021B   26188.19943985  .00000215  00000+0  82220-4 0  9992
2 23561  98.4403 257.9846 0007639 137.0236 244.1674 14.39844596636449
SL-16 R/B               
1 23705U 95058B   26188.27260765 -.00000230  00000+0 -93317-4 0  9997
2 23705  71.0220 289.1886 0014630 293.1672  66.7909 14.15508853584775
SL-16 R/B               
1 24298U 96051B   26188.21490198  .00000135  00000+0  99759-4 0  9996
2 24298  70.7653 282.2644 0017137 308.6346  51.3239 14.12453336538520
ORBVIEW 2 (SEASTAR)     
1 24883U 97037A   26187.95388080  .00000205  00000+0  87563-4 0  9995
2 24883  98.8707 355.5224 0003284  77.0577 283.0974 14.35563934525583
SL-16 R/B               
1 25400U 98043G   26188.28903329  .00000031  00000+0  32070-4 0  9995
2 25400  98.8374 142.6222 0010445  33.3747 326.8089 14.26071866456037
SL-16 R/B               
1 25407U 98045B   26188.22487900 -.00000093  00000+0 -22988-4 0  9997
2 25407  71.0126 290.1898 0008563 217.3576 142.6953 14.16207762444027
ISS (ZARYA)             
1 25544U 98067A   26188.50835634  .00005806  00000+0  11369-3 0  9990
2 25544  51.6304 199.5144 0006687 267.6545  92.3678 15.48933372574901
CZ-4B R/B               
1 25732U 99025C   26188.09616242  .00000028  00000+0  34226-4 0  9999
2 25732  98.6473 229.4327 0037109   3.2169  23.0322 14.18286752405092
OKEAN-O                 
1 25860U 99039A   26188.15049611  .00000503  00000+0  72543-4 0  9995
2 25860  97.9305 246.7183 0001046  74.8049 285.3279 14.80491100452061
SL-16 R/B               
1 25861U 99039B   26188.08621469  .00000428  00000+0  60936-4 0  9994
2 25861  97.9826 246.8916 0013762 226.1050 133.9027 14.81865187454542
DELTA 2 R/B             
1 25876U 99041E   26187.99421649  .00001209  00000+0  23261-3 0  9997
2 25876  51.7610 184.6656 0501202 340.5445  17.6943 14.12061027379880
HELIOS 1B               
1 25977U 99064A   26188.21728573  .00001258  00000+0  14323-3 0  9999
2 25977  98.1596  93.9355 0002292  64.0347 296.1105 14.88061078703033
TERRA                   
1 25994U 99068A   26188.50724569  .00000320  00000+0  74049-4 0  9996
2 25994  97.9444 237.2467 0003045 138.1285 354.4816 14.61119538412578
SL-16 R/B               
1 26070U 00006B   26188.05930359 -.00000204  00000+0 -79334-4 0  9997
2 26070  71.0005 206.8406 0016834 351.6066   8.4772 14.15840447365454
TITAN 4B R/B            
1 26474U 00047B   26188.59088287  .00001930  00000+0  12308-3 0  9995
2 26474  67.9887  63.1370 0046020 266.2985  93.2901 15.10309585411018
ENVISAT                 
1 27386U 02009A   26188.36266362  .00000074  00000+0  37819-4 0  9998
2 27386  98.3843 139.2321 0001371  84.5205  77.1642 14.39069589276387
IDEFIX & ARIANE 42P R/B 
1 27422U 02021B   26188.26566074  .00000171  00000+0  81363-4 0  9996
2 27422  98.5942 125.5315 0011392 189.8899 170.2061 14.31091373261127
AQUA                    
1 27424U 02022A   26188.59668580  .00000663  00000+0  14161-3 0  9997
2 27424  98.4289 158.2889 0000729  97.5163  31.9579 14.62189503286257
CZ-4B R/B               
1 27432U 02024C   26188.10969660  .00000021  00000+0  33450-4 0  9999
2 27432  98.8689 240.7995 0050854  44.7225 343.4236 14.14567441246127
MIDORI II (ADEOS-II)    
1 27597U 02056A   26188.36844925  .00000201  00000+0  96623-4 0  9991
2 27597  98.7889 147.8009 0001791  50.3715 309.7624 14.29360353227399
H-2A R/B                
1 27601U 02056E   26188.33706420  .00000185  00000+0  79173-4 0  9993
2 27601  98.3322 144.2782 0070399 164.1641 350.7347 14.33831053231257
CZ-4B R/B               
1 28059U 03049C   26188.44774424  .00000209  00000+0  59646-4 0  9995
2 28059  98.6904 188.1015 0047224 225.2589 134.4759 14.55112654204012
CZ-2C R/B               
1 28222U 04012C   26187.71803848  .00106998  00000+0  48784-3 0  9992
2 28222  97.7057 265.7145 0011227 217.1216 142.9277 15.83414277222983
SL-16 R/B               
1 28353U 04021B   26188.45563721  .00000271  00000+0  16559-3 0  9994
2 28353  71.0021 341.1507 0006506 231.6529 128.4009 14.14613874139770
CZ-4B R/B               
1 28415U 04035C   26188.07017770  .00005280  00000+0  17717-3 0  9996
2 28415  97.3361 220.9219 0028859 263.1254  96.6704 15.30915636198167
CZ-2C R/B               
1 28480U 04046B   26188.17488490  .00000092  00000+0  48941-4 0  9992
2 28480  98.1927  95.7050 0139664 161.0143 199.6320 14.27031495125544
ARIANE 5 R/B            
1 28499U 04049H   26188.47277070  .00000464  00000+0  57765-4 0  9995
2 28499  98.2736   1.5113 0083033 323.6113  35.9473 14.85472992163570
CZ-2D R/B               
1 28738U 05024B   26188.03305232  .00051770  00000+0  39702-3 0  9995
2 28738  97.3477 208.4827 0000991 228.1817 131.9362 15.71950618158457
ALOS (DAICHI)           
1 28931U 06002A   26188.30576805  .00000923  00000+0  16181-3 0  9993
2 28931  98.1332 143.8117 0000795  76.5463 283.5831 14.70091569 91055
